[{"OBJECT_NAME":"OBJECT C","OBJECT_ID":"2024-110C","EPOCH":"2026-03-09T23:43:55.665408","MEAN_MOTION":14.9795015,"ECCENTRICITY":0.00127752,"INCLINATION":97.5516,"RA_OF_ASC_NODE":147.5124,"ARG_OF_PERICENTER":117.9593,"MEAN_ANOMALY":242.2925,"EPHEMERIS_TYPE":0,"CLASSIFICATION_TYPE":"U","NORAD_CAT_ID":60014,"ELEMENT_SET_NO":999,"REV_AT_EPOCH":8695,"BSTAR":0.00013340044,"MEAN_MOTION_DOT":1.519e-5,"MEAN_MOTION_DDOT":0},{"OBJECT_NAME":"STARLINK-32908","OBJECT_ID":"2025-037H","EPOCH":"2026-03-09T21:33:28.159776","MEAN_MOTION":14.98334862,"ECCENTRICITY":0.00027491,"INCLINATION":70.0038,"RA_OF_ASC_NODE":353.9146,"ARG_OF_PERICENTER":251.3607,"MEAN_ANOMALY":108.7254,"EPHEMERIS_TYPE":0,"CLASSIFICATION_TYPE":"U","NORAD_CAT_ID":63084,"ELEMENT_SET_NO":999,"REV_AT_EPOCH":5849,"BSTAR":0.00077539397,"MEAN_MOTION_DOT":9.172e-5,"MEAN_MOTION_DDOT":0}]
